57640,STARLINK-30324,2023,95.84,-1.0,+,43.0,Active,0,LEO,USA,USA,Unknown,Unknown,Falcon,1 57640U 23122J   24022.38373654  .00023757  00000+0  17670-2 0  9997,2 57640  43.0033 358.3976 0000708 244.9064 115.1704 15.02553296 25253,15.02553296,7.08e-05,LEO
57641,STARLINK-30312,2023,95.84,-1.0,+,43.0,Active,0,LEO,USA,USA,Unknown,Unknown,Falcon,1 57641U 23122K   24022.97870649  .00014787  00000+0  11072-2 0  9992,2 57641  43.0031 355.1193 0001161 236.1104 123.9628 15.02543601 25341,15.02543601,0.0001161,LEO
57642,STARLINK-30263,2023,95.84,-1.0,+,43.0,Active,0,LEO,USA,USA,Unknown,Unknown,Falcon,1 57642U 23122L   24022.97203027  .00008199  00000+0  62121-3 0  9995,2 57642  43.0042 355.0705 0003713 225.6497 134.4041 15.02540011 25343,15.02540011,0.0003713,LEO
57643,STARLINK-30280,2023,95.84,-1.0,+,43.0,Active,0,LEO,USA,USA,Unknown,Unknown,Falcon,1 57643U 23122M   24023.36092059  .00031020  00000+0  22998-2 0  9997,2 57643  43.0037 352.8284 0001804 247.4911 112.5740 15.02559159 25387,15.02559159,0.0001804,LEO
57644,STARLINK-30247,2023,95.84,-1.0,+,43.0,Active,0,LEO,USA,USA,Unknown,Unknown,Falcon,1 57644U 23122N   24022.96539013  .00000313  00000+0  38211-4 0  9997,2 57644  43.0035 355.0235 0000973 240.0649 120.0096 15.02539968 25340,15.02539968,9.73e-05,LEO
57645,STARLINK-30277,2023,95.84,-1.0,+,43.0,Active,0,LEO,USA,USA,Unknown,Unknown,Falcon,1 57645U 23122P   24022.96872117  .00011445  00000+0  86095-3 0  9993,2 57645  43.0033 355.0447 0001180 253.5162 106.5551 15.02535103 25346,15.02535103,0.000118,LEO
57646,STARLINK-30265,2023,95.84,-1.0,+,43.0,Active,0,LEO,USA,USA,Unknown,Unknown,Falcon,1 57646U 23122Q   24023.37421760  .00032978  00000+0  24415-2 0  9995,2 57646  43.0030 352.9269 0004708 224.1300 135.9167 15.02581549 25387,15.02581549,0.0004708,LEO
57647,STARLINK-30286,2023,95.84,-1.0,+,43.0,Active,0,LEO,USA,USA,Unknown,Unknown,Falcon,1 57647U 23122R   24022.95873508  .00000193  00000+0  29325-4 0  9991,2 57647  43.0046 354.9694 0000850 240.9890 119.0867 15.02536879 25345,15.02536879,8.5e-05,LEO
57648,STARLINK-30243,2023,95.84,-1.0,+,43.0,Active,0,LEO,USA,USA,Unknown,Unknown,Falcon,1 57648U 23122S   24022.94540423 -.00003337  00000+0 -23209-3 0  9997,2 57648  43.0033 354.8708 0001274 234.8991 125.1732 15.02534626 25349,15.02534626,0.0001274,LEO
57649,STARLINK-30293,2023,93.38,-1.0,+,43.0,Active,0,LEO,USA,USA,Unknown,Unknown,Falcon,1 57649U 23122T   24023.00684047  .00045038  00000+0  10265-2 0  9996,2 57649  42.9957 321.9864 0019564 178.9174 181.1728 15.42003552 25736,15.42003552,0.0019564,LEO
57650,STARLINK-30299,2023,95.84,-1.0,+,43.0,Active,0,LEO,USA,USA,Unknown,Unknown,Falcon,1 57650U 23122U   24023.35426249  .00038262  00000+0  28293-2 0  9995,2 57650  43.0038 352.7783 0001245 251.9952 108.0755 15.02572398 25390,15.02572398,0.0001245,LEO
57651,STARLINK-30294,2023,95.84,-1.0,+,43.0,Active,0,LEO,USA,USA,Unknown,Unknown,Falcon,1 57651U 23122V   24022.94459461  .00003726  00000+0  29070-3 0  9994,2 57651  42.9999 342.1470 0001304 251.0926 108.9775 15.02540174 25498,15.02540174,0.0001304,LEO
57652,STARLINK-30276,2023,95.84,-1.0,+,43.0,Active,0,LEO,USA,USA,Unknown,Unknown,Falcon,1 57652U 23122W   24022.94873792  .00027533  00000+0  20442-2 0  9997,2 57652  43.0040 354.8942 0001448 236.7217 123.3487 15.02555456 25348,15.02555456,0.0001448,LEO
57653,STARLINK-30289,2023,95.84,-1.0,+,43.0,Active,0,LEO,USA,USA,Unknown,Unknown,Falcon,1 57653U 23122X   24022.95235729  .00006148  00000+0  46963-3 0  9997,2 57653  43.0017 342.1535 0001252 252.1551 107.9154 15.02549732 25492,15.02549732,0.0001252,LEO
57654,GAOFEN-12 04,2023,97.22,-1.0,+,97.91,Active,0,LEO,PRC,China,Unknown,Unknown,Unknown,1 57654U 23123A   24023.46741736  .00002855  00000+0  37429-3 0  9994,2 57654  97.9119 302.8338 0001936  31.0790 329.0537 14.81113891 23057,14.81113891,0.0001936,LEO
57663,STARLINK-30267,2023,94.82,-1.0,+,53.05,Active,0,LEO,USA,USA,Unknown,Unknown,Falcon,1 57663U 23124A   24023.14648621  .00001487  00000+0  85860-4 0  9992,2 57663  53.0538 209.7395 0001199 129.2772 230.8329 15.18728575 24741,15.18728575,0.0001199,LEO
57664,STARLINK-30302,2023,94.82,-1.0,+,53.05,Active,0,LEO,USA,USA,Unknown,Unknown,Falcon,1 57664U 23124B   24023.15017027  .00005558  00000+0  27939-3 0  9999,2 57664  53.0530 211.1725 0001235  93.8768 266.2368 15.18722268 24727,15.18722268,0.0001235,LEO
