[{"OBJECT_NAME":"STARLINK-30324","OBJECT_ID":"2023-122J","EPOCH":"2024-01-22T09:12:34.837056","MEAN_MOTION":15.02553296,"ECCENTRICITY":7.08e-5,"INCLINATION":43.0033,"RA_OF_ASC_NODE":358.3976,"ARG_OF_PERICENTER":244.9064,"MEAN_ANOMALY":115.1704,"EPHEMERIS_TYPE":0,"CLASSIFICATION_TYPE":"U","NORAD_CAT_ID":57640,"ELEMENT_SET_NO":999,"REV_AT_EPOCH":2525,"BSTAR":0.001767,"MEAN_MOTION_DOT":0.00023757,"MEAN_MOTION_DDOT":0},{"OBJECT_NAME":"STARLINK-30312","OBJECT_ID":"2023-122K","EPOCH":"2024-01-22T23:29:20.240736","MEAN_MOTION":15.02543601,"ECCENTRICITY":0.0001161,"INCLINATION":43.0031,"RA_OF_ASC_NODE":355.1193,"ARG_OF_PERICENTER":236.1104,"MEAN_ANOMALY":123.9628,"EPHEMERIS_TYPE":0,"CLASSIFICATION_TYPE":"U","NORAD_CAT_ID":57641,"ELEMENT_SET_NO":999,"REV_AT_EPOCH":2534,"BSTAR":0.0011072,"MEAN_MOTION_DOT":0.00014787,"MEAN_MOTION_DDOT":0},{"OBJECT_NAME":"STARLINK-30263","OBJECT_ID":"2023-122L","EPOCH":"2024-01-22T23:19:43.415328","MEAN_MOTION":15.02540011,"ECCENTRICITY":0.0003713,"INCLINATION":43.0042,"RA_OF_ASC_NODE":355.0705,"ARG_OF_PERICENTER":225.6497,"MEAN_ANOMALY":134.4041,"EPHEMERIS_TYPE":0,"CLASSIFICATION_TYPE":"U","NORAD_CAT_ID":57642,"ELEMENT_SET_NO":999,"REV_AT_EPOCH":2534,"BSTAR":0.00062121,"MEAN_MOTION_DOT":8.199e-5,"MEAN_MOTION_DDOT":0},{"OBJECT_NAME":"STARLINK-30280","OBJECT_ID":"2023-122M","EPOCH":"2024-01-23T08:39:43.538976","MEAN_MOTION":15.02559159,"ECCENTRICITY":0.0001804,"INCLINATION":43.0037,"RA_OF_ASC_NODE":352.8284,"ARG_OF_PERICENTER":247.4911,"MEAN_ANOMALY":112.574,"EPHEMERIS_TYPE":0,"CLASSIFICATION_TYPE":"U","NORAD_CAT_ID":57643,"ELEMENT_SET_NO":999,"REV_AT_EPOCH":2538,"BSTAR":0.0022998,"MEAN_MOTION_DOT":0.0003102,"MEAN_MOTION_DDOT":0},{"OBJECT_NAME":"STARLINK-30247","OBJECT_ID":"2023-122N","EPOCH":"2024-01-22T23:10:09.707232","MEAN_MOTION":15.02539968,"ECCENTRICITY":9.73e-5,"INCLINATION":43.0035,"RA_OF_ASC_NODE":355.0235,"ARG_OF_PERICENTER":240.0649,"MEAN_ANOMALY":120.0096,"EPHEMERIS_TYPE":0,"CLASSIFICATION_TYPE":"U","NORAD_CAT_ID":57644,"ELEMENT_SET_NO":999,"REV_AT_EPOCH":2534,"BSTAR":3.8211e-5,"MEAN_MOTION_DOT":3.13e-6,"MEAN_MOTION_DDOT":0},{"OBJECT_NAME":"STARLINK-30277","OBJECT_ID":"2023-122P","EPOCH":"2024-01-22T23:14:57.509088","MEAN_MOTION":15.02535103,"ECCENTRICITY":0.000118,"INCLINATION":43.0033,"RA_OF_ASC_NODE":355.0447,"ARG_OF_PERICENTER":253.5162,"MEAN_ANOMALY":106.5551,"EPHEMERIS_TYPE":0,"CLASSIFICATION_TYPE":"U","NORAD_CAT_ID":57645,"ELEMENT_SET_NO":999,"REV_AT_EPOCH":2534,"BSTAR":0.00086095,"MEAN_MOTION_DOT":0.00011445,"MEAN_MOTION_DDOT":0},{"OBJECT_NAME":"STARLINK-30265","OBJECT_ID":"2023-122Q","EPOCH":"2024-01-23T08:58:52.400640","MEAN_MOTION":15.02581549,"ECCENTRICITY":0.0004708,"INCLINATION":43.003,"RA_OF_ASC_NODE":352.9269,"ARG_OF_PERICENTER":224.13,"MEAN_ANOMALY":135.9167,"EPHEMERIS_TYPE":0,"CLASSIFICATION_TYPE":"U","NORAD_CAT_ID":57646,"ELEMENT_SET_NO":999,"REV_AT_EPOCH":2538,"BSTAR":0.0024415,"MEAN_MOTION_DOT":0.00032978,"MEAN_MOTION_DDOT":0},{"OBJECT_NAME":"STARLINK-30286","OBJECT_ID":"2023-122R","EPOCH":"2024-01-22T23:00:34.710912","MEAN_MOTION":15.02536879,"ECCENTRICITY":8.5e-5,"INCLINATION":43.0046,"RA_OF_ASC_NODE":354.9694,"ARG_OF_PERICENTER":240.989,"MEAN_ANOMALY":119.0867,"EPHEMERIS_TYPE":0,"CLASSIFICATION_TYPE":"U","NORAD_CAT_ID":57647,"ELEMENT_SET_NO":999,"REV_AT_EPOCH":2534,"BSTAR":2.9325e-5,"MEAN_MOTION_DOT":1.93e-6,"MEAN_MOTION_DDOT":0},{"OBJECT_NAME":"STARLINK-30243","OBJECT_ID":"2023-122S","EPOCH":"2024-01-22T22:41:22.925472","MEAN_MOTION":15.02534626,"ECCENTRICITY":0.0001274,"INCLINATION":43.0033,"RA_OF_ASC_NODE":354.8708,"ARG_OF_PERICENTER":234.8991,"MEAN_ANOMALY":125.1732,"EPHEMERIS_TYPE":0,"CLASSIFICATION_TYPE":"U","NORAD_CAT_ID":57648,"ELEMENT_SET_NO":999,"REV_AT_EPOCH":2534,"BSTAR":-0.00023209,"MEAN_MOTION_DOT":-3.337e-5,"MEAN_MOTION_DDOT":0},{"OBJECT_NAME":"STARLINK-30293","OBJECT_ID":"2023-122T","EPOCH":"2024-01-23T00:09:51.016608","MEAN_MOTION":15.42003552,"ECCENTRICITY":0.0019564,"INCLINATION":42.9957,"RA_OF_ASC_NODE":321.9864,"ARG_OF_PERICENTER":178.9174,"MEAN_ANOMALY":181.1728,"EPHEMERIS_TYPE":0,"CLASSIFICATION_TYPE":"U","NORAD_CAT_ID":57649,"ELEMENT_SET_NO":999,"REV_AT_EPOCH":2573,"BSTAR":0.0010265,"MEAN_MOTION_DOT":0.00045038,"MEAN_MOTION_DDOT":0},{"OBJECT_NAME":"STARLINK-30299","OBJECT_ID":"2023-122U","EPOCH":"2024-01-23T08:30:08.279136","MEAN_MOTION":15.02572398,"ECCENTRICITY":0.0001245,"INCLINATION":43.0038,"RA_OF_ASC_NODE":352.7783,"ARG_OF_PERICENTER":251.9952,"MEAN_ANOMALY":108.0755,"EPHEMERIS_TYPE":0,"CLASSIFICATION_TYPE":"U","NORAD_CAT_ID":57650,"ELEMENT_SET_NO":999,"REV_AT_EPOCH":2539,"BSTAR":0.0028293,"MEAN_MOTION_DOT":0.00038262,"MEAN_MOTION_DDOT":0},{"OBJECT_NAME":"STARLINK-30294","OBJECT_ID":"2023-122V","EPOCH":"2024-01-22T22:40:12.974304","MEAN_MOTION":15.02540174,"ECCENTRICITY":0.0001304,"INCLINATION":42.9999,"RA_OF_ASC_NODE":342.147,"ARG_OF_PERICENTER":251.0926,"MEAN_ANOMALY":108.9775,"EPHEMERIS_TYPE":0,"CLASSIFICATION_TYPE":"U","NORAD_CAT_ID":57651,"ELEMENT_SET_NO":999,"REV_AT_EPOCH":2549,"BSTAR":0.0002907,"MEAN_MOTION_DOT":3.726e-5,"MEAN_MOTION_DDOT":0},{"OBJECT_NAME":"STARLINK-30276","OBJECT_ID":"2023-122W","EPOCH":"2024-01-22T22:46:10.956288","MEAN_MOTION":15.02555456,"ECCENTRICITY":0.0001448,"INCLINATION":43.004,"RA_OF_ASC_NODE":354.8942,"ARG_OF_PERICENTER":236.7217,"MEAN_ANOMALY":123.3487,"EPHEMERIS_TYPE":0,"CLASSIFICATION_TYPE":"U","NORAD_CAT_ID":57652,"ELEMENT_SET_NO":999,"REV_AT_EPOCH":2534,"BSTAR":0.0020442,"MEAN_MOTION_DOT":0.00027533,"MEAN_MOTION_DDOT":0},{"OBJECT_NAME":"STARLINK-30289","OBJECT_ID":"2023-122X","EPOCH":"2024-01-22T22:51:23.669856","MEAN_MOTION":15.02549732,"ECCENTRICITY":0.0001252,"INCLINATION":43.0017,"RA_OF_ASC_NODE":342.1535,"ARG_OF_PERICENTER":252.1551,"MEAN_ANOMALY":107.9154,"EPHEMERIS_TYPE":0,"CLASSIFICATION_TYPE":"U","NORAD_CAT_ID":57653,"ELEMENT_SET_NO":999,"REV_AT_EPOCH":2549,"BSTAR":0.00046963,"MEAN_MOTION_DOT":6.148e-5,"MEAN_MOTION_DDOT":0},{"OBJECT_NAME":"GAOFEN-12 04","OBJECT_ID":"2023-123A","EPOCH":"2024-01-23T11:13:04.859904","MEAN_MOTION":14.81113891,"ECCENTRICITY":0.0001936,"INCLINATION":97.9119,"RA_OF_ASC_NODE":302.8338,"ARG_OF_PERICENTER":31.079,"MEAN_ANOMALY":329.0537,"EPHEMERIS_TYPE":0,"CLASSIFICATION_TYPE":"U","NORAD_CAT_ID":57654,"ELEMENT_SET_NO":999,"REV_AT_EPOCH":2305,"BSTAR":0.00037429,"MEAN_MOTION_DOT":2.855e-5,"MEAN_MOTION_DDOT":0},{"OBJECT_NAME":"STARLINK-30267","OBJECT_ID":"2023-124A","EPOCH":"2024-01-23T03:30:56.408544","MEAN_MOTION":15.18728575,"ECCENTRICITY":0.0001199,"INCLINATION":53.0538,"RA_OF_ASC_NODE":209.7395,"ARG_OF_PERICENTER":129.2772,"MEAN_ANOMALY":230.8329,"EPHEMERIS_TYPE":0,"CLASSIFICATION_TYPE":"U","NORAD_CAT_ID":57663,"ELEMENT_SET_NO":999,"REV_AT_EPOCH":2474,"BSTAR":8.586e-5,"MEAN_MOTION_DOT":1.487e-5,"MEAN_MOTION_DDOT":0},{"OBJECT_NAME":"STARLINK-30302","OBJECT_ID":"2023-124B","EPOCH":"2024-01-23T03:36:14.711328","MEAN_MOTION":15.18722268,"ECCENTRICITY":0.0001235,"INCLINATION":53.053,"RA_OF_ASC_NODE":211.1725,"ARG_OF_PERICENTER":93.8768,"MEAN_ANOMALY":266.2368,"EPHEMERIS_TYPE":0,"CLASSIFICATION_TYPE":"U","NORAD_CAT_ID":57664,"ELEMENT_SET_NO":999,"REV_AT_EPOCH":2472,"BSTAR":0.00027939,"MEAN_MOTION_DOT":5.558e-5,"MEAN_MOTION_DDOT":0}]
